QIANFAN-3               
1 60381U 24140C   26013.13298648  .00000121  00000+0  16789-3 0  9999
2 60381  88.9757 296.0008 0015432 105.1410 255.1449 13.50990482 71555
QIANFAN-4               
1 60382U 24140D   26013.10825852  .00000130  00000+0  18276-3 0  9993
2 60382  88.9782 295.9090 0014689  96.1031 264.1794 13.50986203 71676
QIANFAN-5               
1 60383U 24140E   26013.15773415  .00000119  00000+0  16581-3 0  9990
2 60383  88.9756 296.0236 0016491 115.6721 244.6136 13.50988295 71540
QIANFAN-6               
1 60384U 24140F   26013.17831001  .00000127  00000+0  17801-3 0  9994
2 60384  88.9783 295.7762 0014734 101.2766 259.0042 13.50988448 71747
QIANFAN-7               
1 60385U 24140G   26013.14438523  .00000566  00000+0  22369-3 0  9996
2 60385  88.9794 290.0375 0013467 304.2679  55.7239 14.27705177 74875
QIANFAN-8               
1 60386U 24140H   26013.11253041  .00000127  00000+0  17798-3 0  9997
2 60386  88.9785 296.0209 0018151 104.1766 256.1403 13.50989849 71587
QIANFAN-9               
1 60387U 24140J   26013.08766399  .00000117  00000+0  16175-3 0  9996
2 60387  88.9783 296.0982 0017831 103.9287 256.3849 13.50989922 71569
QIANFAN-10              
1 60388U 24140K   26013.16589057  .00000120  00000+0  16665-3 0  9998
2 60388  88.9792 295.4404 0016544  83.1701 277.1332 13.50990336 71707
QIANFAN-11              
1 60389U 24140L   26013.12900373  .00000105  00000+0  14403-3 0  9994
2 60389  88.9719 296.0080 0015881 103.1864 257.1060 13.50989849 71354
QIANFAN-12              
1 60390U 24140M   26013.14948098  .00000131  00000+0  18401-3 0  9995
2 60390  88.9761 296.0629 0014559 110.1515 250.1203 13.50987384 71482
QIANFAN-13              
1 60391U 24140N   26013.12066571  .00000119  00000+0  16608-3 0  9994
2 60391  88.9774 296.1696 0014320 112.5535 247.7133 13.50987810 71507
QIANFAN-14              
1 60392U 24140P   26013.14528553  .00000141  00000+0  19932-3 0  9998
2 60392  88.9752 296.0580 0018004 113.4580 246.8466 13.50987402 71515
QIANFAN-15              
1 60393U 24140Q   26013.07952140  .00000122  00000+0  17034-3 0  9994
2 60393  88.9776 296.0287 0014052 100.2284 260.0452 13.50985910 71492
QIANFAN-16              
1 60394U 24140R   26013.14124538  .00000137  00000+0  19262-3 0  9996
2 60394  88.9779 296.1434 0015874 116.5871 243.6909 13.50991321 71415
QIANFAN-17              
1 60395U 24140S   26013.13719537  .00000120  00000+0  16685-3 0  9993
2 60395  88.9790 296.1931 0016393 110.9221 249.3687 13.50984926 72370
QIANFAN-18              
1 60396U 24140T   26013.11660512  .00000123  00000+0  17131-3 0  9990
2 60396  88.9783 295.7266 0015997  95.1635 265.1342 13.50984995 71763
STARLINK-11228 [DTC]    
1 60398U 24141A   26013.11242762 -.00002523  00000+0 -15971-4 0  9995
2 60398  53.1603   0.2551 0000473  75.2586 284.8484 15.69722950 82965
STARLINK-11182 [DTC]    
1 60399U 24141B   26012.39737880 -.00002215  00000+0 -13439-4 0  9990
2 60399  53.1581   3.6069 0001934 123.4084 236.7119 15.69676456 82908
STARLINK-11234 [DTC]    
1 60400U 24141C   26012.96547014 -.00002654  00000+0 -17042-4 0  9995
2 60400  53.1594   0.7527 0001207  87.0999 273.0157 15.69719643 82941
STARLINK-11232 [DTC]    
1 60401U 24141D   26012.96056247 -.00001698  00000+0 -91552-5 0  9995
2 60401  53.1592   0.7222 0001046  69.2103 290.9027 15.69721472 82994
STARLINK-11139 [DTC]    
1 60402U 24141E   26012.00062996 -.00001949  00000+0 -11244-4 0  9997
2 60402  53.1594   5.3969 0001010 109.3923 250.7204 15.69695547 82841
STARLINK-11158 [DTC]    
1 60403U 24141F   26012.95085840 -.00000545  00000+0  36188-6 0  9991
2 60403  53.1600   1.3886 0001320 106.8212 253.2950 15.69712192 82933
STARLINK-11199 [DTC]    
1 60404U 24141G   26013.13696348 -.00002431  00000+0 -15208-4 0  9999
2 60404  53.1601   0.4126 0001473  81.8531 278.2654 15.69710352 83011
STARLINK-11081 [DTC]    
1 60405U 24141H   26013.13204935 -.00001864  00000+0 -10515-4 0  9992
2 60405  53.1597   0.3809 0001446  89.2251 270.8932 15.69723047 82969
STARLINK-11150 [DTC]    
1 60406U 24141J   26013.12714632  .00000040  00000+0  51954-5 0  9998
2 60406  53.1591   0.3490 0001569  79.7492 280.3703 15.69719593 83017
STARLINK-11136 [DTC]    
1 60407U 24141K   26013.12223858 -.00001540  00000+0 -78422-5 0  9991
2 60407  53.1591   0.3152 0001831  69.1189 291.0024 15.69722978 82960
STARLINK-11196 [DTC]    
1 60408U 24141L   26013.11733148 -.00000726  00000+0 -11366-5 0  9998
2 60408  53.1597   0.2824 0001049  67.1757 292.9371 15.69719066 83018
STARLINK-11174 [DTC]    
1 60409U 24141M   26013.10752640 -.00002296  00000+0 -14093-4 0  9999
2 60409  53.1601   0.2186 0001287  52.6714 307.4421 15.69719642 82963
STARLINK-11191 [DTC]    
1 60410U 24141N   26013.10261734 -.00002488  00000+0 -15683-4 0  9999
2 60410  53.1599   0.1850 0000559 116.9746 243.1329 15.69720819 83016
STARLINK-32244          
1 60411U 24141P   26013.08042372  .00000852  00000+0  40902-4 0  9995
2 60411  53.1592 141.0972 0000869  80.7786 279.3313 15.30190972 81062
STARLINK-32186          
1 60412U 24141Q   26013.07725711 -.00001192  00000+0 -28140-4 0  9990
2 60412  53.1600 141.0786 0001304  92.2006 267.9144 15.30191255 81008
STARLINK-32178          
1 60413U 24141R   26013.06776451 -.00001230  00000+0 -29401-4 0  9991
2 60413  53.1614 141.0173 0001770  82.1910 277.9291 15.30185045 81007
STARLINK-32234          
1 60414U 24141S   26013.07409117 -.00002076  00000+0 -57988-4 0  9995
2 60414  53.1599 141.0556 0001116  92.2650 267.8479 15.30191000 81062
STARLINK-32265          
1 60415U 24141T   26013.07092519 -.00000356  00000+0  11194-6 0  9999
2 60415  53.1612 141.0379 0001168  90.5450 269.5685 15.30189619 81069
STARLINK-32197          
1 60416U 24141U   26012.75076753  .00000090  00000+0  15150-4 0  9994
2 60416  53.1595 132.6315 0001112  82.7593 277.3534 15.30190407 81096
STARLINK-32255          
1 60417U 24141V   26012.73486277 -.00000100  00000+0  87305-5 0  9994
2 60417  53.1614 142.4934 0000950 117.7186 242.3912 15.30187158 81014
STARLINK-32236          
1 60418U 24141W   26013.05718999  .00001312  00000+0  56414-4 0  9991
2 60418  53.1619 140.9487 0001167  94.0910 266.0224 15.30206841 81064
CAPELLA-13 (ACADIA-3)   
1 60419U 24142A   26013.03980782  .00004833  00000+0  55155-3 0  9993
2 60419  53.0064  14.7829 0001348  87.9551 272.1584 14.87647174 77318
ASBM-1                  
1 60422U 24143A   26012.93862888 -.00000125  00000+0  00000+0 0  9998
2 60422  62.7365  51.5389 5547526 268.9882  30.4097  1.50424579  9282
ASBM-2                  
1 60423U 24143B   26008.61762269 -.00000114  00000+0  00000+0 0  9999
2 60423  62.7007  51.7771 5541701 269.0288  30.4447  1.50417728  9203
STARLINK-32250          
1 60425U 24144A   26012.70326455 -.00000498  00000+0 -46973-5 0  9991
2 60425  53.1598 117.4519 0001232  87.3346 272.7796 15.30186065 79839
STARLINK-32226          
1 60426U 24144B   26012.70220538 -.00000398  00000+0 -12994-5 0  9992
2 60426  53.1599 117.4438 0001181  74.4735 285.6396 15.30190383 80731
STARLINK-32254          
1 60427U 24144C   26013.01611406  .00000034  00000+0  13277-4 0  9995
2 60427  53.1607 115.8484 0001190  91.1386 268.9751 15.30193133 80828
STARLINK-32193          
1 60428U 24144D   26012.70008920  .00000351  00000+0  23966-4 0  9990
2 60428  53.1595 117.4299 0001253  78.3309 281.7833 15.30192406 80779
STARLINK-32242          
1 60429U 24144E   26012.56208408 -.00002052  00000+0 -57214-4 0  9993
2 60429  53.1604 117.9909 0001178  86.7537 273.3598 15.30176967 80753
STARLINK-32196          
1 60430U 24144F   26013.01294310 -.00000911  00000+0 -18634-4 0  9998
2 60430  53.1599 115.8312 0001331  65.9353 294.1787 15.30196029 80784
STARLINK-32232          
1 60431U 24144G   26012.69692660  .00000338  00000+0  23529-4 0  9992
2 60431  53.1604 117.4117 0001121  88.9465 271.1664 15.30191195 80732
STARLINK-32246          
1 60432U 24144H   26013.01189646 -.00000737  00000+0 -12759-4 0  9993
2 60432  53.1608 115.8204 0001563  94.5566 265.5613 15.30186465 80781
STARLINK-32183          
1 60433U 24144J   26013.00978388 -.00000930  00000+0 -19259-4 0  9999
2 60433  53.1615 115.8077 0001538 100.9559 259.1614 15.30191859 80787
STARLINK-32233          
1 60434U 24144K   26012.54308967 -.00001684  00000+0 -44761-4 0  9991
2 60434  53.1608 117.8735 0001458  95.3556 264.7611 15.30177341 80710
STARLINK-32222          
1 60435U 24144L   26013.00345312 -.00000716  00000+0 -12069-4 0  9990
2 60435  53.1576 115.7696 0001132  86.0975 274.0155 15.30188170 80785
STARLINK-32229          
1 60436U 24144M   26012.47461600 -.00002533  00000+0 -73485-4 0  9998
2 60436  53.1624 118.1554 0001386  99.8556 260.2601 15.30172254 80709
STARLINK-32241          
1 60437U 24144N   26012.53885472 -.00003662  00000+0 -11156-3 0  9993
2 60437  53.1590 117.8477 0001601  77.5675 282.5505 15.30197185 80718
STARLINK-32240          
1 60438U 24144P   26012.99395390 -.00000569  00000+0 -70912-5 0  9999
2 60438  53.1614 115.7090 0001181 101.7778 258.3355 15.30189300 80827
STARLINK-32231          
1 60439U 24144Q   26012.66000325 -.00001856  00000+0 -50578-4 0  9990
2 60439  53.1596 117.1800 0001352  93.4516 266.6639 15.30180765 79831
STARLINK-32195          
1 60440U 24144R   26012.99078325 -.00000296  00000+0  21324-5 0  9997
2 60440  53.1613 115.6908 0001316  90.8643 269.2509 15.30194995 80788
STARLINK-32177          
1 60441U 24144S   26012.98341336 -.00000373  00000+0 -46007-6 0  9995
2 60441  53.1625 115.6443 0001522 104.3331 255.7839 15.30176129 80785
STARLINK-32252          
1 60442U 24144T   26012.97706653  .00001494  00000+0  62572-4 0  9998
2 60442  53.1583 115.6023 0001263 104.7335 255.3806 15.30194284 80820
STARLINK-32237          
1 60443U 24144U   26012.98022830 -.00002920  00000+0 -86494-4 0  9994
2 60443  53.1590 115.6225 0001188 100.8503 259.2632 15.30202178 80780
